{
  "type": "FeatureCollection",
  "features": [
    {
      "type": "Feature",
      "properties": {
        "norad_id": 28054,
        "name": "DMSP 5D-3 F16 (USA 172)",
        "group": "weather",
        "lat": 53.42353629160141,
        "lon": -171.68978107313254,
        "alt_km": 842.9880813376449,
        "timestamp": "2025-12-04T13:52:00.091148+00:00",
        "meta_object_name": "DMSP 5D-3 F16 (USA 172)",
        "meta_object_id": "2003-048A",
        "meta_epoch": "2025-12-04T05:24:35.322912",
        "meta_mean_motion": 14.14419585,
        "meta_eccentricity": 0.00068551,
        "meta_inclination": 99.0052,
        "meta_ra_of_asc_node": 355.6153,
        "meta_arg_of_pericenter": 346.8369,
        "meta_mean_anomaly": 145.4102,
        "meta_ephemeris_type": 0,
        "meta_classification_type": "U",
        "meta_norad_cat_id": 28054,
        "meta_element_set_no": 999,
        "meta_rev_at_epoch": 14192,
        "meta_bstar": 0.00016845913,
        "meta_mean_motion_dot": 2.77e-06,
        "meta_mean_motion_ddot": 0,
        "tle_line1": "1 28054U 03048A   25338.22540883  .00000277  00000+0  16846-3 0  9990",
        "tle_line2": "2 28054  99.0052 355.6153 0006855 346.8369 145.4102 14.14419585141923"
      },
      "geometry": {
        "type": "Point",
        "coordinates": [
          -171.68978107313254,
          53.42353629160141
        ]
      }
    },
    {
      "type": "Feature",
      "properties": {
        "norad_id": 28912,
        "name": "METEOSAT-9 (MSG-2)",
        "group": "weather",
        "lat": -8.92380889985543,
        "lon": -32.69665995297544,
        "alt_km": 35786.00377378124,
        "timestamp": "2025-12-04T13:52:00.091210+00:00",
        "meta_object_name": "METEOSAT-9 (MSG-2)",
        "meta_object_id": "2005-049B",
        "meta_epoch": "2025-12-02T20:50:55.807872",
        "meta_mean_motion": 1.00271253,
        "meta_eccentricity": 0.00040042,
        "meta_inclination": 8.9157,
        "meta_ra_of_asc_node": 56.0648,
        "meta_arg_of_pericenter": 185.08,
        "meta_mean_anomaly": 189.154,
        "meta_ephemeris_type": 0,
        "meta_classification_type": "U",
        "meta_norad_cat_id": 28912,
        "meta_element_set_no": 999,
        "meta_rev_at_epoch": 503,
        "meta_bstar": 0,
        "meta_mean_motion_dot": 1.39e-06,
        "meta_mean_motion_ddot": 0,
        "tle_line1": "1 28912U 05049B   25336.86870148  .00000139  00000+0  00000+0 0  9992",
        "tle_line2": "2 28912   8.9157  56.0648 0004004 185.0800 189.1540  1.00271253  5030"
      },
      "geometry": {
        "type": "Point",
        "coordinates": [
          -32.69665995297544,
          -8.92380889985543
        ]
      }
    },
    {
      "type": "Feature",
      "properties": {
        "norad_id": 29522,
        "name": "DMSP 5D-3 F17 (USA 191)",
        "group": "weather",
        "lat": 50.665223303975495,
        "lon": -26.68194755775141,
        "alt_km": 844.1728721919362,
        "timestamp": "2025-12-04T13:52:00.091228+00:00",
        "meta_object_name": "DMSP 5D-3 F17 (USA 191)",
        "meta_object_id": "2006-050A",
        "meta_epoch": "2025-12-04T06:50:06.672480",
        "meta_mean_motion": 14.14914033,
        "meta_eccentricity": 0.00091767,
        "meta_inclination": 98.7394,
        "meta_ra_of_asc_node": 343.8499,
        "meta_arg_of_pericenter": 251.2715,
        "meta_mean_anomaly": 108.7463,
        "meta_ephemeris_type": 0,
        "meta_classification_type": "U",
        "meta_norad_cat_id": 29522,
        "meta_element_set_no": 999,
        "meta_rev_at_epoch": 98485,
        "meta_bstar": 0.00020268788,
        "meta_mean_motion_dot": 3.48e-06,
        "meta_mean_motion_ddot": 0,
        "tle_line1": "1 29522U 06050A   25338.28479945  .00000348  00000+0  20269-3 0  9996",
        "tle_line2": "2 29522  98.7394 343.8499 0009176 251.2715 108.7463 14.14914033984851"
      },
      "geometry": {
        "type": "Point",
        "coordinates": [
          -26.68194755775141,
          50.665223303975495
        ]
      }
    },
    {
      "type": "Feature",
      "properties": {
        "norad_id": 32958,
        "name": "FENGYUN 3A",
        "group": "weather",
        "lat": -9.25095787195012,
        "lon": -80.29948189466046,
        "alt_km": 825.2658954952731,
        "timestamp": "2025-12-04T13:52:00.091242+00:00",
        "meta_object_name": "FENGYUN 3A",
        "meta_object_id": "2008-026A",
        "meta_epoch": "2025-12-04T07:08:38.024448",
        "meta_mean_motion": 14.19510425,
        "meta_eccentricity": 0.00083093,
        "meta_inclination": 98.6683,
        "meta_ra_of_asc_node": 278.0026,
        "meta_arg_of_pericenter": 336.4672,
        "meta_mean_anomaly": 23.6123,
        "meta_ephemeris_type": 0,
        "meta_classification_type": "U",
        "meta_norad_cat_id": 32958,
        "meta_element_set_no": 999,
        "meta_rev_at_epoch": 90775,
        "meta_bstar": 0.0001375658,
        "meta_mean_motion_dot": 2.47e-06,
        "meta_mean_motion_ddot": 0,
        "tle_line1": "1 32958U 08026A   25338.29766232  .00000247  00000+0  13757-3 0  9999",
        "tle_line2": "2 32958  98.6683 278.0026 0008309 336.4672  23.6123 14.19510425907752"
      },
      "geometry": {
        "type": "Point",
        "coordinates": [
          -80.29948189466046,
          -9.25095787195012
        ]
      }
    },
    {
      "type": "Feature",
      "properties": {
        "norad_id": 35491,
        "name": "GOES 14",
        "group": "weather",
        "lat": 1.1629520243768898,
        "lon": 173.2554006135669,
        "alt_km": 35777.782870421215,
        "timestamp": "2025-12-04T13:52:00.091256+00:00",
        "meta_object_name": "GOES 14",
        "meta_object_id": "2009-033A",
        "meta_epoch": "2025-12-04T06:21:43.497792",
        "meta_mean_motion": 1.00272684,
        "meta_eccentricity": 0.00041992,
        "meta_inclination": 1.1757,
        "meta_ra_of_asc_node": 85.5091,
        "meta_arg_of_pericenter": 151.2623,
        "meta_mean_anomaly": 183.6681,
        "meta_ephemeris_type": 0,
        "meta_classification_type": "U",
        "meta_norad_cat_id": 35491,
        "meta_element_set_no": 999,
        "meta_rev_at_epoch": 463,
        "meta_bstar": 0,
        "meta_mean_motion_dot": -5.2e-07,
        "meta_mean_motion_ddot": 0,
        "tle_line1": "1 35491U 09033A   25338.26508678 -.00000052  00000+0  00000+0 0  9996",
        "tle_line2": "2 35491   1.1757  85.5091 0004199 151.2623 183.6681  1.00272684  4632"
      },
      "geometry": {
        "type": "Point",
        "coordinates": [
          173.2554006135669,
          1.1629520243768898
        ]
      }
    },
    {
      "type": "Feature",
      "properties": {
        "norad_id": 35951,
        "name": "DMSP 5D-3 F18 (USA 210)",
        "group": "weather",
        "lat": -74.13330299882733,
        "lon": -11.600190943592462,
        "alt_km": 858.6620864074439,
        "timestamp": "2025-12-04T13:52:00.091269+00:00",
        "meta_object_name": "DMSP 5D-3 F18 (USA 210)",
        "meta_object_id": "2009-057A",
        "meta_epoch": "2025-12-04T05:44:34.547136",
        "meta_mean_motion": 14.14761844,
        "meta_eccentricity": 0.00121159,
        "meta_inclination": 98.8824,
        "meta_ra_of_asc_node": 314.683,
        "meta_arg_of_pericenter": 84.8741,
        "meta_mean_anomaly": 275.3814,
        "meta_ephemeris_type": 0,
        "meta_classification_type": "U",
        "meta_norad_cat_id": 35951,
        "meta_element_set_no": 999,
        "meta_rev_at_epoch": 83202,
        "meta_bstar": 0.00027110172,
        "meta_mean_motion_dot": 4.78e-06,
        "meta_mean_motion_ddot": 0,
        "tle_line1": "1 35951U 09057A   25338.23928874  .00000478  00000+0  27110-3 0  9990",
        "tle_line2": "2 35951  98.8824 314.6830 0012115  84.8741 275.3814 14.14761844832026"
      },
      "geometry": {
        "type": "Point",
        "coordinates": [
          -11.600190943592462,
          -74.13330299882733
        ]
      }
    },
    {
      "type": "Feature",
      "properties": {
        "norad_id": 36411,
        "name": "EWS-G2 (GOES 15)",
        "group": "weather",
        "lat": -0.7636455856210074,
        "lon": -16.816157401521416,
        "alt_km": 35785.8001781168,
        "timestamp": "2025-12-04T13:52:00.091282+00:00",
        "meta_object_name": "EWS-G2 (GOES 15)",
        "meta_object_id": "2010-008A",
        "meta_epoch": "2025-12-04T05:27:25.236288",
        "meta_mean_motion": 1.00267857,
        "meta_eccentricity": 0.00059955,
        "meta_inclination": 0.7913,
        "meta_ra_of_asc_node": 86.0508,
        "meta_arg_of_pericenter": 170.4434,
        "meta_mean_anomaly": 320.1555,
        "meta_ephemeris_type": 0,
        "meta_classification_type": "U",
        "meta_norad_cat_id": 36411,
        "meta_element_set_no": 999,
        "meta_rev_at_epoch": 5768,
        "meta_bstar": 0,
        "meta_mean_motion_dot": 5.3e-07,
        "meta_mean_motion_ddot": 0,
        "tle_line1": "1 36411U 10008A   25338.22737542  .00000053  00000+0  00000+0 0  9993",
        "tle_line2": "2 36411   0.7913  86.0508 0005995 170.4434 320.1555  1.00267857 57688"
      },
      "geometry": {
        "type": "Point",
        "coordinates": [
          -16.816157401521416,
          -0.7636455856210074
        ]
      }
    }
  ]
}